$$SOE
2461295.500000000, A.D. 2026-Sep-12 00:00:00.0000, 1.849106599190594E+08, -4.507089502524852E+08, -2.756365219280511E+07,
2461302.500000000, A.D. 2026-Sep-19 00:00:00.0000, 1.941530351484663E+08, -4.476494406811895E+08, -2.852357923924115E+07,
2461309.500000000, A.D. 2026-Sep-26 00:00:00.0000, 2.033147161604734E+08, -4.444038553627739E+08, -2.947164793273550E+07,
2461316.500000000, A.D. 2026-Oct-03 00:00:00.0000, 2.123923166347155E+08, -4.409744712266336E+08, -3.040752542364380E+07,
2461323.500000000, A.D. 2026-Oct-10 00:00:00.0000, 2.213825154789046E+08, -4.373636109906192E+08, -3.133088671708444E+07,
2461330.500000000, A.D. 2026-Oct-17 00:00:00.0000, 2.302820565731631E+08, -4.335736413402148E+08, -3.224141461632469E+07,
2461337.500000000, A.D. 2026-Oct-24 00:00:00.0000, 2.390877484696425E+08, -4.296069712573520E+08, -3.313879967106336E+07,
2461344.500000000, A.D. 2026-Oct-31 00:00:00.0000, 2.477964641487541E+08, -4.254660505642534E+08, -3.402274014524725E+07,
2461351.500000000, A.D. 2026-Nov-07 00:00:00.0000, 2.564051411740860E+08, -4.211533686073213E+08, -3.489294202956513E+07,
2461358.500000000, A.D. 2026-Nov-14 00:00:00.0000, 2.649107824498910E+08, -4.166714521935456E+08, -3.574911904459125E+07,
2461365.500000000, A.D. 2026-Nov-21 00:00:00.0000, 2.733104557716557E+08, -4.120228620976248E+08, -3.659099241269818E+07,
2461372.500000000, A.D. 2026-Nov-28 00:00:00.0000, 2.816012911731089E+08, -4.072101911467469E+08, -3.741829055295527E+07,
2461379.500000000, A.D. 2026-Dec-05 00:00:00.0000, 2.897804796910968E+08, -4.022360645374036E+08, -3.823074908452985E+07,
2461386.500000000, A.D. 2026-Dec-12 00:00:00.0000, 2.978452737159363E+08, -3.971031392722208E+08, -3.902811089942014E+07,
2461393.500000000, A.D. 2026-Dec-19 00:00:00.0000, 3.057929870424024E+08, -3.918141027099795E+08, -3.981012613087267E+07,
2461400.500000000, A.D. 2026-Dec-26 00:00:00.0000, 3.136209944808961E+08, -3.863716710962846E+08, -4.057655207533872E+07,
2461407.500000000, A.D. 2027-Jan-02 00:00:00.0000, 3.213267313061934E+08, -3.807785882650936E+08, -4.132715310888772E+07,
2461414.500000000, A.D. 2027-Jan-09 00:00:00.0000, 3.289076926618062E+08, -3.750376244902608E+08, -4.206170060720567E+07,
2461421.500000000, A.D. 2027-Jan-16 00:00:00.0000, 3.363614329557214E+08, -3.691515754775591E+08, -4.277997287178713E+07,
2461428.500000000, A.D. 2027-Jan-23 00:00:00.0000, 3.436855652933502E+08, -3.631232615358072E+08, -4.348175506989238E+07,
2461435.500000000, A.D. 2027-Jan-30 00:00:00.0000, 3.508777611351792E+08, -3.569555269735292E+08, -4.416683920954786E+07,
2461442.500000000, A.D. 2027-Feb-06 00:00:00.0000, 3.579357506041511E+08, -3.506512393799221E+08, -4.483502416099398E+07,
2461449.500000000, A.D. 2027-Feb-13 00:00:00.0000, 3.648573229831581E+08, -3.442132875701654E+08, -4.548611558301140E+07,
2461456.500000000, A.D. 2027-Feb-20 00:00:00.0000, 3.716403250388530E+08, -3.376445789861519E+08, -4.611992560231845E+07,
2461463.500000000, A.D. 2027-Feb-27 00:00:00.0000, 3.782826585670206E+08, -3.309480397651004E+08, -4.673627263697281E+07,
2461470.500000000, A.D. 2027-Mar-06 00:00:00.0000, 3.847822801778835E+08, -3.241266155514675E+08, -4.733498148373052E+07,
2461477.500000000, A.D. 2027-Mar-13 00:00:00.0000, 3.911372017225452E+08, -3.171832710015209E+08, -4.791588335543859E+07,
2461484.500000000, A.D. 2027-Mar-20 00:00:00.0000, 3.973454902326115E+08, -3.101209888145279E+08, -4.847881583342217E+07,
2461491.500000000, A.D. 2027-Mar-27 00:00:00.0000, 4.034052675762628E+08, -3.029427688387546E+08, -4.902362279854046E+07,
2461498.500000000, A.D. 2027-Apr-03 00:00:00.0000, 4.093147100348489E+08, -2.956516272992811E+08, -4.955015436367095E+07,
2461505.500000000, A.D. 2027-Apr-10 00:00:00.0000, 4.150720478622177E+08, -2.882505961239656E+08, -5.005826681155396E+07,
2461512.500000000, A.D. 2027-Apr-17 00:00:00.0000, 4.206755648493366E+08, -2.807427223813201E+08, -5.054782254131766E+07,
2461519.500000000, A.D. 2027-Apr-24 00:00:00.0000, 4.261235979731615E+08, -2.731310678915697E+08, -5.101869003603290E+07,
2461526.500000000, A.D. 2027-May-01 00:00:00.0000, 4.314145374287366E+08, -2.654187089813241E+08, -5.147074387637742E+07,
2461533.500000000, A.D. 2027-May-08 00:00:00.0000, 4.365468273520681E+08, -2.576087356311097E+08, -5.190386476729363E+07,
2461540.500000000, A.D. 2027-May-15 00:00:00.0000, 4.415189657384091E+08, -2.497042490606830E+08, -5.231793936244579E+07,
2461547.500000000, A.D. 2027-May-22 00:00:00.0000, 4.463295019934683E+08, -2.417083603429587E+08, -5.271285995496242E+07,
2461554.500000000, A.D. 2027-May-29 00:00:00.0000, 4.509770354740277E+08, -2.336241915135332E+08, -5.308852446229444E+07,
2461561.500000000, A.D. 2027-Jun-05 00:00:00.0000, 4.554602159040099E+08, -2.254548760427706E+08, -5.344483653045596E+07,
2461568.500000000, A.D. 2027-Jun-12 00:00:00.0000, 4.597777436600338E+08, -2.172035582383057E+08, -5.378170553832038E+07,
2461575.500000000, A.D. 2027-Jun-19 00:00:00.0000, 4.639283695963215E+08, -2.088733925128222E+08, -5.409904654800557E+07,
2461582.500000000, A.D. 2027-Jun-26 00:00:00.0000, 4.679108946887205E+08, -2.004675427779025E+08, -5.439678024819607E+07,
2461589.500000000, A.D. 2027-Jul-03 00:00:00.0000, 4.717241696301692E+08, -1.919891819548144E+08, -5.467483290163665E+07,
2461596.500000000, A.D. 2027-Jul-10 00:00:00.0000, 4.753670944146929E+08, -1.834414915925593E+08, -5.493313629923743E+07,
2461603.500000000, A.D. 2027-Jul-17 00:00:00.0000, 4.788386179464955E+08, -1.748276616311494E+08, -5.517162772706822E+07,
2461610.500000000, A.D. 2027-Jul-24 00:00:00.0000, 4.821377378304793E+08, -1.661508903719924E+08, -5.539024996547624E+07,
2461617.500000000, A.D. 2027-Jul-31 00:00:00.0000, 4.852635007552980E+08, -1.574143844185092E+08, -5.558895133852974E+07,
2461624.500000000, A.D. 2027-Aug-07 00:00:00.0000, 4.882150032687117E+08, -1.486213574335970E+08, -5.576768570105405E+07,
2461631.500000000, A.D. 2027-Aug-14 00:00:00.0000, 4.909913906457918E+08, -1.397750279666269E+08, -5.592641217295349E+07,
2461638.500000000, A.D. 2027-Aug-21 00:00:00.0000, 4.935918544686515E+08, -1.308786197144246E+08, -5.606509495254193E+07,
2461645.500000000, A.D. 2027-Aug-28 00:00:00.0000, 4.960156323476425E+08, -1.219353630122233E+08, -5.618370342514011E+07,
2461652.500000000, A.D. 2027-Sep-04 00:00:00.0000, 4.982620086024306E+08, -1.129484950508500E+08, -5.628221225409526E+07,
2461659.500000000, A.D. 2027-Sep-11 00:00:00.0000, 5.003303145078595E+08, -1.039212594803974E+08, -5.636060138042460E+07,
2461666.500000000, A.D. 2027-Sep-18 00:00:00.0000, 5.022199282378677E+08, -9.485690604949968E+07, -5.641885599661033E+07,
2461673.500000000, A.D. 2027-Sep-25 00:00:00.0000, 5.039302747363610E+08, -8.575869035650536E+07, -5.645696652208056E+07,
2461680.500000000, A.D. 2027-Oct-02 00:00:00.0000, 5.054608255903032E+08, -7.662987368344803E+07, -5.647492858525483E+07,
2461687.500000000, A.D. 2027-Oct-09 00:00:00.0000, 5.068110989280120E+08, -6.747372291579428E+07, -5.647274301488745E+07,
2461694.500000000, A.D. 2027-Oct-16 00:00:00.0000, 5.079806594065075E+08, -5.829351060156563E+07, -5.645041585132109E+07,
2461701.500000000, A.D. 2027-Oct-23 00:00:00.0000, 5.089691185481389E+08, -4.909251515451795E+07, -5.640795840223934E+07,
2461708.500000000, A.D. 2027-Oct-30 00:00:00.0000, 5.097761358009733E+08, -3.987402058974896E+07, -5.634538732753722E+07,
2461715.500000000, A.D. 2027-Nov-06 00:00:00.0000, 5.104014191600289E+08, -3.064131466170046E+07, -5.626272455450352E+07,
2461722.500000000, A.D. 2027-Nov-13 00:00:00.0000, 5.108447233658880E+08, -2.139768747982711E+07, -5.615999701118314E+07,
2461729.500000000, A.D. 2027-Nov-20 00:00:00.0000, 5.111058485831015E+08, -1.214643278793073E+07, -5.603723662286697E+07,
2461736.500000000, A.D. 2027-Nov-27 00:00:00.0000, 5.111846411749831E+08, -2.890848941875912E+06, -5.589448047766322E+07,
2461743.500000000, A.D. 2027-Dec-04 00:00:00.0000, 5.110809945511558E+08, 6.365761329582907E+06, -5.573177090076511E+07,
2461750.500000000, A.D. 2027-Dec-11 00:00:00.0000, 5.107948495377672E+08, 1.562009141783609E+07, -5.554915546567367E+07,
2461757.500000000, A.D. 2027-Dec-18 00:00:00.0000, 5.103261945456308E+08, 2.486883124284168E+07, -5.534668699524625E+07,
2461764.500000000, A.D. 2027-Dec-25 00:00:00.0000, 5.096750656881232E+08, 3.410866757526874E+07, -5.512442356655445E+07,
2461771.500000000, A.D. 2028-Jan-01 00:00:00.0000, 5.088415468896265E+08, 4.333628428748440E+07, -5.488242852192733E+07,
$$EOE